{"fetched_at":"2026-03-30T06:02:59Z","count":15439,"tles":[{"name":"STARLINK-2674","line1":"1 48354U 21038B   26087.78764546  .00016620  00000+0  57169-3 0  9993","line2":"2 48354  53.1575 269.4928 0000882  75.2330 284.8768 15.30217254270002","category":"Starlink"}]}